NORAD_CAT_ID,OBJECT_NAME,OBJECT_TYPE,EPOCH,MEAN_MOTION,ECCENTRICITY,INCLINATION,RA_OF_ASC_NODE,ARG_OF_PERICENTER,MEAN_ANOMALY,BSTAR,MEAN_MOTION_DOT,MEAN_MOTION_DDOT,TLE_LINE0,TLE_LINE1,TLE_LINE2,SEMIMAJOR_AXIS,PERIOD,APOGEE,PERIGEE,DECAYED
55956.0,STARLINK-5883,PAYLOAD,2024-07-31 12:30:51,14.98321649,0.0002623,70.0003,302.2821,261.2448,98.8414,1.5954e-05,9.7e-07,0.0,0 STARLINK-5883,1 55956U 23037AU  24213.52143353  .00000097  00000-0  15954-4 0  9997,2 55956  70.0003 302.2821 0002623 261.2448  98.8414 14.98321649 77016,6950.219,96.108,573.907,570.261,0.0
55956.0,STARLINK-5883,PAYLOAD,2024-07-31 14:06:59,14.98322543,0.0002952,69.9999,302.114,268.1491,91.933,-2.4296e-05,-3.83e-06,0.0,0 STARLINK-5883,1 55956U 23037AU  24213.58819434 -.00000383  00000-0 -24296-4 0  9992,2 55956  69.9999 302.1140 0002952 268.1491  91.9330 14.98322543 76686,6950.216,96.107,574.133,570.029,0.0
55956.0,STARLINK-5883,PAYLOAD,2024-07-31 15:43:07,14.98323612,0.0002922,70.0,301.9457,267.8457,92.2367,-6.7281e-06,-1.73e-06,0.0,0 STARLINK-5883,1 55956U 23037AU  24213.65495351 -.00000173  00000-0 -67281-5 0  9997,2 55956  70.0000 301.9457 0002922 267.8457  92.2367 14.98323612 76698,6950.213,96.107,574.108,570.047,0.0
55956.0,STARLINK-5883,PAYLOAD,2024-08-01 12:32:51,14.98337515,0.0003015,70.0,299.7583,269.8088,90.2726,0.00013973,1.575e-05,0.0,0 STARLINK-5883,1 55956U 23037AU  24214.52282092  .00001575  00000-0  13973-3 0  9992,2 55956  70.0000 299.7583 0003015 269.8088  90.2726 14.98337515 77165,6950.17,96.107,574.13,569.939,0.0
55956.0,STARLINK-5883,PAYLOAD,2024-08-02 12:34:56,14.98303737,0.000329,69.9997,297.2337,270.1912,89.887,-0.00020429,-2.528e-05,0.0,0 STARLINK-5883,1 55956U 23037AU  24215.52426001 -.00002528  00000-0 -20429-3 0  9998,2 55956  69.9997 297.2337 0003290 270.1912  89.8870 14.98303737 77313,6950.274,96.109,574.426,569.852,0.0
55956.0,STARLINK-5883,PAYLOAD,2024-08-02 14:11:04,14.98302087,0.0003379,69.9987,297.0617,278.4689,81.6087,-0.00016777,-2.093e-05,0.0,0 STARLINK-5883,1 55956U 23037AU  24215.59102173 -.00002093  00000-0 -16777-3 0  9994,2 55956  69.9987 297.0617 0003379 278.4689  81.6087 14.98302087 76980,6950.279,96.109,574.493,569.796,0.0
55956.0,STARLINK-5883,PAYLOAD,2024-08-02 22:11:43,14.98321531,0.0004039,69.9997,296.2244,266.3256,93.7442,-4.7722e-05,-6.62e-06,0.0,0 STARLINK-5883,1 55956U 23037AU  24215.92480628 -.00000662  00000-0 -47722-4 0  9990,2 55956  69.9997 296.2244 0004039 266.3256  93.7442 14.98321531 77039,6950.219,96.108,574.891,569.277,0.0
55956.0,STARLINK-5883,PAYLOAD,2024-08-03 04:36:15,14.98327342,0.0003655,69.9992,295.5488,269.1059,90.9681,-6.1805e-05,-8.3e-06,0.0,0 STARLINK-5883,1 55956U 23037AU  24216.19184621 -.00000830  00000-0 -61805-4 0  9999,2 55956  69.9992 295.5488 0003655 269.1059  90.9681 14.98327342 77413,6950.201,96.107,574.606,569.526,0.0
55956.0,STARLINK-5883,PAYLOAD,2024-08-03 12:36:54,14.98342914,0.0003211,69.9996,294.7074,268.982,91.0971,0.00011383,1.266e-05,0.0,0 STARLINK-5883,1 55956U 23037AU  24216.52563104  .00001266  00000-0  11383-3 0  9990,2 55956  69.9996 294.7074 0003211 268.9820  91.0971 14.98342914 77461,6950.153,96.106,574.25,569.786,0.0
55956.0,STARLINK-5883,PAYLOAD,2024-08-03 22:13:42,14.98340123,0.0002998,70.0002,293.6989,269.8272,90.2544,0.00016849,1.918e-05,0.0,0 STARLINK-5883,1 55956U 23037AU  24216.92618881  .00001918  00000-0  16849-3 0  9993,2 55956  70.0002 293.6989 0002998 269.8272  90.2544 14.98340123 77183,6950.162,96.106,574.11,569.943,0.0
55956.0,STARLINK-5883,PAYLOAD,2024-08-04 12:38:55,14.98331937,0.0002998,70.0,292.1841,263.4282,96.6536,0.00036726,4.292e-05,0.0,0 STARLINK-5883,1 55956U 23037AU  24217.52702806  .00004292  00000-0  36726-3 0  9995,2 55956  70.0000 292.1841 0002998 263.4282  96.6536 14.98331937 77615,6950.187,96.107,574.136,569.968,0.0
55956.0,STARLINK-5883,PAYLOAD,2024-08-04 14:15:03,14.98334252,0.0002965,69.9998,292.0155,263.8599,96.2223,0.0003773,4.412e-05,0.0,0 STARLINK-5883,1 55956U 23037AU  24217.59378605  .00004412  00000-0  37730-3 0  9998,2 55956  69.9998 292.0155 0002965 263.8599  96.2223 14.98334252 77289,6950.18,96.107,574.105,569.984,0.0
55956.0,STARLINK-5883,PAYLOAD,2024-08-04 22:15:43,14.98334739,0.0003152,69.9993,291.1729,274.724,85.3559,0.00023002,2.653e-05,0.0,0 STARLINK-5883,1 55956U 23037AU  24217.92758853  .00002653  00000-0  23002-3 0  9994,2 55956  69.9993 291.1729 0003152 274.7240  85.3559 14.98334739 77331,6950.178,96.107,574.234,569.853,0.0
55956.0,STARLINK-5883,PAYLOAD,2024-08-05 12:40:56,14.98341187,0.0003088,69.9999,289.6594,267.9231,92.1574,-0.00011601,-1.477e-05,0.0,0 STARLINK-5883,1 55956U 23037AU  24218.52842898 -.00001477  00000-0 -11601-3 0  9991,2 55956  69.9999 289.6594 0003088 267.9231  92.1574 14.98341187 77766,6950.158,96.106,574.17,569.877,0.0
55956.0,STARLINK-5883,PAYLOAD,2024-08-05 22:17:45,14.98332134,0.0002763,70.001,288.6487,272.3298,87.7545,-0.00021218,-2.624e-05,0.0,0 STARLINK-5883,1 55956U 23037AU  24218.92899585 -.00002624  00000-0 -21218-3 0  9990,2 55956  70.0010 288.6487 0002763 272.3298  87.7545 14.98332134 77484,6950.186,96.107,573.972,570.131,0.0
55956.0,STARLINK-5883,PAYLOAD,2024-08-06 14:19:05,14.98330068,0.0003132,69.9995,286.9645,266.4604,93.6196,-0.00018355,-2.282e-05,0.0,0 STARLINK-5883,1 55956U 23037AU  24219.59659452 -.00002282  00000-0 -18355-3 0  9999,2 55956  69.9995 286.9645 0003132 266.4604  93.6196 14.98330068 77589,6950.193,96.107,574.234,569.881,0.0
55956.0,STARLINK-5883,PAYLOAD,2024-08-07 04:44:17,14.98332541,0.0003348,69.9992,285.4503,271.9408,88.1368,9.7079e-05,1.066e-05,0.0,0 STARLINK-5883,1 55956U 23037AU  24220.19742336  .00001066  00000-0  97079-4 0  9999,2 55956  69.9992 285.4503 0003348 271.9408  88.1368 14.98332541 78012,6950.185,96.107,574.377,569.723,0.0
55956.0,STARLINK-5883,PAYLOAD,2024-08-07 12:44:57,14.98341154,0.0003291,69.9992,284.6081,270.7758,89.3024,0.00012216,1.365e-05,0.0,0 STARLINK-5883,1 55956U 23037AU  24220.53121624  .00001365  00000-0  12216-3 0  9999,2 55956  69.9992 284.6081 0003291 270.7758  89.3024 14.98341154 78063,6950.158,96.106,574.311,569.736,0.0
55956.0,STARLINK-5883,PAYLOAD,2024-08-08 12:46:58,14.98329296,0.0002849,70.0001,282.0837,260.5864,99.4973,9.4241e-05,1.032e-05,0.0,0 STARLINK-5883,1 55956U 23037AU  24221.53262251  .00001032  00000-0  94241-4 0  9992,2 55956  70.0001 282.0837 0002849 260.5864  99.4973 14.98329296 77877,6950.195,96.107,574.04,570.08,0.0
55956.0,STARLINK-5883,PAYLOAD,2024-08-08 14:23:06,14.98328708,0.0002817,70.0005,281.916,260.8113,99.2727,0.00012824,1.437e-05,0.0,0 STARLINK-5883,1 55956U 23037AU  24221.59938201  .00001437  00000-0  12824-3 0  9998,2 55956  70.0005 281.9160 0002817 260.8113  99.2727 14.98328708 78225,6950.197,96.107,574.02,570.104,0.0
55956.0,STARLINK-5883,PAYLOAD,2024-08-09 12:48:59,14.98330804,0.0002811,70.0005,279.5602,262.6277,97.4563,-9.5169e-05,-1.228e-05,0.0,0 STARLINK-5883,1 55956U 23037AU  24222.53402573 -.00001228  00000-0 -95169-4 0  9995,2 55956  70.0005 279.5602 0002811 262.6277  97.4563 14.98330804 78020,6950.19,96.107,574.009,570.102,0.0
55956.0,STARLINK-5883,PAYLOAD,2024-08-09 14:25:07,14.98334,0.0003015,69.9997,279.3904,265.3708,94.7106,-7.5627e-05,-9.95e-06,0.0,0 STARLINK-5883,1 55956U 23037AU  24222.60078223 -.00000995  00000-0 -75627-4 0  9991,2 55956  69.9997 279.3904 0003015 265.3708  94.7106 14.98334000 78379,6950.181,96.107,574.141,569.95,0.0
55956.0,STARLINK-5883,PAYLOAD,2024-08-10 12:51:00,14.98332536,0.0003341,69.9991,277.0347,268.8976,91.18,3.4284e-05,3.16e-06,0.0,0 STARLINK-5883,1 55956U 23037AU  24223.53541852  .00000316  00000-0  34284-4 0  9996,2 55956  69.9991 277.0347 0003341 268.8976  91.1800 14.98332536 78178,6950.185,96.107,574.372,569.728,0.0
55956.0,STARLINK-5883,PAYLOAD,2024-08-11 03:16:13,14.98321837,0.0003378,69.9987,275.5191,271.0938,88.9834,-3.328e-05,-4.9e-06,0.0,0 STARLINK-5883,1 55956U 23037AU  24224.13626668 -.00000490  00000-0 -33280-4 0  9992,2 55956  69.9987 275.5191 0003378 271.0938  88.9834 14.98321837 78608,6950.218,96.108,574.431,569.735,0.0
55956.0,STARLINK-5883,PAYLOAD,2024-08-11 09:40:45,14.98328298,0.0003215,69.998,274.8444,266.4985,93.5806,1.5217e-05,8.9e-07,0.0,0 STARLINK-5883,1 55956U 23037AU  24224.40330122  .00000089  00000-0  15217-4 0  9991,2 55956  69.9980 274.8444 0003215 266.4985  93.5806 14.98328298 78647,6950.198,96.107,574.298,569.829,0.0
55956.0,STARLINK-5883,PAYLOAD,2024-08-11 20:53:41,14.98330714,0.000352,69.9989,273.6668,272.0012,88.0744,-2.655e-05,-4.1e-06,0.0,0 STARLINK-5883,1 55956U 23037AU  24224.87061947 -.00000410  00000-0 -26550-4 0  9990,2 55956  69.9989 273.6668 0003520 272.0012  88.0744 14.98330714 78370,6950.191,96.107,574.502,569.609,0.0
55956.0,STARLINK-5883,PAYLOAD,2024-08-12 09:42:45,14.98339916,0.0003062,69.9993,272.3221,259.2895,100.7919,0.00010558,1.167e-05,0.0,0 STARLINK-5883,1 55956U 23037AU  24225.40468880  .00001167  00000-0  10558-3 0  9995,2 55956  69.9993 272.3221 0003062 259.2895 100.7919 14.98339916 78798,6950.162,96.106,574.155,569.899,0.0
55956.0,STARLINK-5883,PAYLOAD,2024-08-13 04:56:22,14.98323699,0.0003255,69.9987,270.3031,268.7344,91.3442,-2.2256e-05,-3.59e-06,0.0,0 STARLINK-5883,1 55956U 23037AU  24226.20582010 -.00000359  00000-0 -22256-4 0  9999,2 55956  69.9987 270.3031 0003255 268.7344  91.3442 14.98323699 78917,6950.212,96.107,574.34,569.815,0.0
55956.0,STARLINK-5883,PAYLOAD,2024-08-13 09:44:47,14.98323356,0.0003191,69.9981,269.796,268.0349,92.0444,-7.0293e-05,-9.32e-06,0.0,0 STARLINK-5883,1 55956U 23037AU  24226.40610272 -.00000932  00000-0 -70293-4 0  9994,2 55956  69.9981 269.7960 0003191 268.0349  92.0444 14.98323356 78607,6950.213,96.107,574.296,569.861,0.0
55956.0,STARLINK-5883,PAYLOAD,2024-08-14 04:58:24,14.98320367,0.000326,69.9982,267.7763,269.9253,90.1532,-7.4822e-05,-9.85e-06,0.0,0 STARLINK-5883,1 55956U 23037AU  24227.20722701 -.00000985  00000-0 -74822-4 0  9994,2 55956  69.9982 267.7763 0003260 269.9253  90.1532 14.98320367 79065,6950.223,96.108,574.353,569.822,0.0
